RSP-03                  
1 65732U 98067XL  26035.85137271  .00659480  19702-3  15177-2 0  9990
2 65732  51.6174 216.5141 0006036 265.5865  94.4454 15.96655854 21716
YOTSUBA-KULOVER         
1 65941U 98067XN  26035.70384057  .00112412  00000+0  91522-3 0  9997
2 65941  51.6242 226.8855 0004119 225.2243 134.8419 15.69794881 18308
BOTAN                   
1 65942U 98067XP  26035.73745111  .00298019  00000+0  13964-2 0  9994
2 65942  51.6187 223.3215 0005573 248.4699 111.5709 15.81813889 18359
E-KAGAKU-1              
1 65943U 98067XQ  26035.70439502  .00113942  00000+0  93084-3 0  9999
2 65943  51.6262 226.8993 0003271 239.9819 120.0854 15.69709914 18307
HRC MONOBLOCK CAMERA    
1 66052U 98067XR  26035.71861746  .00045006  00000+0  57495-3 0  9992
2 66052  51.6282 231.4945 0000535   1.9112 358.1883 15.58789985 17245
HTV-X1                  
1 66174U 25241A   26036.05036301  .00011388  00000+0  21868-3 0  9991
2 66174  51.6315 233.7051 0011125  65.7526 294.4623 15.48402345   511
SZ-21 MODULE            
1 66515U 25246C   26036.06577666  .00039319  00000+0  37389-3 0  9999
2 66515  41.4761  43.8031 0003128 275.8658  84.1826 15.66077390 12952
SHENZHOU-22             
1 66645U 25272A   26036.19244547  .00018681  00000+0  23497-3 0  9999
2 66645  41.4676  45.6780 0005707   3.1658 356.9216 15.59205280267643
SOYUZ-MS 28             
1 66664U 25275A   26036.05036301  .00011388  00000+0  21868-3 0  9992
2 66664  51.6315 233.7051 0011125  65.7526 294.4623 15.48402345  1280
DUPLEX                  
1 66906U 98067XS  26036.13312510  .00037635  00000+0  57766-3 0  9997
2 66906  51.6288 232.0111 0001467  84.3836 275.7322 15.53908172 10065
1998-067XT              
1 66907U 98067XT  26036.26557355  .00134987  00000+0  15660-2 0  9994
2 66907  51.6264 229.8947 0002260 193.7796 166.3136 15.60828885 10106
1998-067XU              
1 66908U 98067XU  26035.56076192  .00100287  00000+0  11761-2 0  9996
2 66908  51.6255 233.4362 0002116 187.7301 172.3660 15.60694624  9990
